{
  "type": "FeatureCollection",
  "features": [
    {
      "type": "Feature",
      "properties": {
        "norad_id": 37781,
        "name": "HAIYANG-2A",
        "group": "resource",
        "lat": 29.53574554573455,
        "lon": 167.16018617564617,
        "alt_km": 965.7977963546464,
        "timestamp": "2025-12-06T18:50:09.827655+00:00",
        "meta_object_name": "HAIYANG-2A",
        "meta_object_id": "2011-043A",
        "meta_epoch": "2025-12-06T05:55:14.883456",
        "meta_mean_motion": 13.78834588,
        "meta_eccentricity": 0.00016516,
        "meta_inclination": 99.3377,
        "meta_ra_of_asc_node": 341.2813,
        "meta_arg_of_pericenter": 93.6112,
        "meta_mean_anomaly": 266.5228,
        "meta_ephemeris_type": 0,
        "meta_classification_type": "U",
        "meta_norad_cat_id": 37781,
        "meta_element_set_no": 999,
        "meta_rev_at_epoch": 72009,
        "meta_bstar": 5.7231716e-05,
        "meta_mean_motion_dot": 1.4e-07,
        "meta_mean_motion_ddot": 0,
        "tle_line1": "1 37781U 11043A   25340.24670004  .00000014  00000+0  57232-4 0  9999",
        "tle_line2": "2 37781  99.3377 341.2813 0001651  93.6112 266.5228 13.78834588720097"
      },
      "geometry": {
        "type": "Point",
        "coordinates": [
          167.16018617564617,
          29.53574554573455
        ]
      }
    },
    {
      "type": "Feature",
      "properties": {
        "norad_id": 37791,
        "name": "RASAT",
        "group": "resource",
        "lat": 19.115653754477744,
        "lon": -107.05187278559659,
        "alt_km": 664.6674648717544,
        "timestamp": "2025-12-06T18:50:09.827665+00:00",
        "meta_object_name": "RASAT",
        "meta_object_id": "2011-044D",
        "meta_epoch": "2025-12-06T06:55:25.671648",
        "meta_mean_motion": 14.67896093,
        "meta_eccentricity": 0.00219467,
        "meta_inclination": 98.0657,
        "meta_ra_of_asc_node": 69.6421,
        "meta_arg_of_pericenter": 84.4829,
        "meta_mean_anomaly": 334.5238,
        "meta_ephemeris_type": 0,
        "meta_classification_type": "U",
        "meta_norad_cat_id": 37791,
        "meta_element_set_no": 999,
        "meta_rev_at_epoch": 76488,
        "meta_bstar": 0.00024095281,
        "meta_mean_motion_dot": 1.334e-05,
        "meta_mean_motion_ddot": 0,
        "tle_line1": "1 37791U 11044D   25340.28849157  .00001334  00000+0  24095-3 0  9998",
        "tle_line2": "2 37791  98.0657  69.6421 0021946  84.4829 334.5238 14.67896093764883"
      },
      "geometry": {
        "type": "Point",
        "coordinates": [
          -107.05187278559659,
          19.115653754477744
        ]
      }
    },
    {
      "type": "Feature",
      "properties": {
        "norad_id": 37841,
        "name": "SRMSAT",
        "group": "resource",
        "lat": -3.5367770711221946,
        "lon": 134.1962320093029,
        "alt_km": 854.1415886684954,
        "timestamp": "2025-12-06T18:50:09.827676+00:00",
        "meta_object_name": "SRMSAT",
        "meta_object_id": "2011-058D",
        "meta_epoch": "2025-12-06T04:24:56.937312",
        "meta_mean_motion": 14.11507978,
        "meta_eccentricity": 0.0011713,
        "meta_inclination": 19.9698,
        "meta_ra_of_asc_node": 147.6293,
        "meta_arg_of_pericenter": 240.665,
        "meta_mean_anomaly": 289.0818,
        "meta_ephemeris_type": 0,
        "meta_classification_type": "U",
        "meta_norad_cat_id": 37841,
        "meta_element_set_no": 999,
        "meta_rev_at_epoch": 73051,
        "meta_bstar": 0.00014726357,
        "meta_mean_motion_dot": 5.36e-06,
        "meta_mean_motion_ddot": 0,
        "tle_line1": "1 37841U 11058D   25340.18399233  .00000536  00000+0  14726-3 0  9996",
        "tle_line2": "2 37841  19.9698 147.6293 0011713 240.6650 289.0818 14.11507978730510"
      },
      "geometry": {
        "type": "Point",
        "coordinates": [
          134.1962320093029,
          -3.5367770711221946
        ]
      }
    },
    {
      "type": "Feature",
      "properties": {
        "norad_id": 38012,
        "name": "PLEIADES 1A",
        "group": "resource",
        "lat": 24.128629567918143,
        "lon": -122.65926867113893,
        "alt_km": 697.0441637775903,
        "timestamp": "2025-12-06T18:50:09.827687+00:00",
        "meta_object_name": "PLEIADES 1A",
        "meta_object_id": "2011-076F",
        "meta_epoch": "2025-12-06T06:47:23.510400",
        "meta_mean_motion": 14.58552287,
        "meta_eccentricity": 0.00013651,
        "meta_inclination": 98.1832,
        "meta_ra_of_asc_node": 53.151,
        "meta_arg_of_pericenter": 79.7051,
        "meta_mean_anomaly": 321.8414,
        "meta_ephemeris_type": 0,
        "meta_classification_type": "U",
        "meta_norad_cat_id": 38012,
        "meta_element_set_no": 999,
        "meta_rev_at_epoch": 74387,
        "meta_bstar": 0.00020497057,
        "meta_mean_motion_dot": 9.07e-06,
        "meta_mean_motion_ddot": 0,
        "tle_line1": "1 38012U 11076F   25340.28291100  .00000907  00000+0  20497-3 0  9996",
        "tle_line2": "2 38012  98.1832  53.1510 0001365  79.7051 321.8414 14.58552287743875"
      },
      "geometry": {
        "type": "Point",
        "coordinates": [
          -122.65926867113893,
          24.128629567918143
        ]
      }
    },
    {
      "type": "Feature",
      "properties": {
        "norad_id": 38038,
        "name": "ZIYUAN 1-02C (ZY 1-02C)",
        "group": "resource",
        "lat": 36.367605954041814,
        "lon": -126.81903631090417,
        "alt_km": 757.6959841784965,
        "timestamp": "2025-12-06T18:50:09.827697+00:00",
        "meta_object_name": "ZIYUAN 1-02C (ZY 1-02C)",
        "meta_object_id": "2011-079A",
        "meta_epoch": "2025-12-06T06:41:27.674592",
        "meta_mean_motion": 14.38001463,
        "meta_eccentricity": 0.00069194,
        "meta_inclination": 98.4344,
        "meta_ra_of_asc_node": 46.4114,
        "meta_arg_of_pericenter": 156.3665,
        "meta_mean_anomaly": 248.5533,
        "meta_ephemeris_type": 0,
        "meta_classification_type": "U",
        "meta_norad_cat_id": 38038,
        "meta_element_set_no": 999,
        "meta_rev_at_epoch": 73148,
        "meta_bstar": 0.0003546244,
        "meta_mean_motion_dot": 1.03e-05,
        "meta_mean_motion_ddot": 0,
        "tle_line1": "1 38038U 11079A   25340.27879253  .00001030  00000+0  35462-3 0  9993",
        "tle_line2": "2 38038  98.4344  46.4114 0006919 156.3665 248.5533 14.38001463731486"
      },
      "geometry": {
        "type": "Point",
        "coordinates": [
          -126.81903631090417,
          36.367605954041814
        ]
      }
    },
    {
      "type": "Feature",
      "properties": {
        "norad_id": 38046,
        "name": "ZIYUAN 3-1 (ZY 3-1)",
        "group": "resource",
        "lat": 36.1635467433256,
        "lon": 41.78393613028629,
        "alt_km": 362.4852744836153,
        "timestamp": "2025-12-06T18:50:09.827707+00:00",
        "meta_object_name": "ZIYUAN 3-1 (ZY 3-1)",
        "meta_object_id": "2012-001A",
        "meta_epoch": "2025-12-06T06:25:23.414304",
        "meta_mean_motion": 15.67354636,
        "meta_eccentricity": 0.00020561,
        "meta_inclination": 97.1765,
        "meta_ra_of_asc_node": 46.5397,
        "meta_arg_of_pericenter": 19.9797,
        "meta_mean_anomaly": 340.1544,
        "meta_ephemeris_type": 0,
        "meta_classification_type": "U",
        "meta_norad_cat_id": 38046,
        "meta_element_set_no": 999,
        "meta_rev_at_epoch": 77395,
        "meta_bstar": 0.00087435278,
        "meta_mean_motion_dot": 0.00094976,
        "meta_mean_motion_ddot": 0,
        "tle_line1": "1 38046U 12001A   25340.26763211  .00094976  00000+0  87435-3 0  9991",
        "tle_line2": "2 38046  97.1765  46.5397 0002056  19.9797 340.1544 15.67354636773955"
      },
      "geometry": {
        "type": "Point",
        "coordinates": [
          41.78393613028629,
          36.1635467433256
        ]
      }
    },
    {
      "type": "Feature",
      "properties": {
        "norad_id": 38338,
        "name": "ARIRANG-3 (KOMPSAT-3)",
        "group": "resource",
        "lat": -14.577032176729483,
        "lon": -62.4864505214977,
        "alt_km": 688.3393087819495,
        "timestamp": "2025-12-06T18:50:09.827718+00:00",
        "meta_object_name": "ARIRANG-3 (KOMPSAT-3)",
        "meta_object_id": "2012-025B",
        "meta_epoch": "2025-12-06T04:07:01.839648",
        "meta_mean_motion": 14.61698822,
        "meta_eccentricity": 0.0005827,
        "meta_inclination": 98.3314,
        "meta_ra_of_asc_node": 294.7118,
        "meta_arg_of_pericenter": 359.8745,
        "meta_mean_anomaly": 0.2453,
        "meta_ephemeris_type": 0,
        "meta_classification_type": "U",
        "meta_norad_cat_id": 38338,
        "meta_element_set_no": 999,
        "meta_rev_at_epoch": 72314,
        "meta_bstar": 0.00023825877,
        "meta_mean_motion_dot": 1.138e-05,
        "meta_mean_motion_ddot": 0,
        "tle_line1": "1 38338U 12025B   25340.17154907  .00001138  00000+0  23826-3 0  9999",
        "tle_line2": "2 38338  98.3314 294.7118 0005827 359.8745   0.2453 14.61698822723148"
      },
      "geometry": {
        "type": "Point",
        "coordinates": [
          -62.4864505214977,
          -14.577032176729483
        ]
      }
    }
  ]
}